[{"OBJECT_NAME":"NAOS","OBJECT_ID":"2025-188C","EPOCH":"2026-03-09T21:13:26.052384","MEAN_MOTION":15.38520358,"ECCENTRICITY":0.00016976,"INCLINATION":97.2175,"RA_OF_ASC_NODE":145.8879,"ARG_OF_PERICENTER":42.2355,"MEAN_ANOMALY":317.9021,"EPHEMERIS_TYPE":0,"CLASSIFICATION_TYPE":"U","NORAD_CAT_ID":65317,"ELEMENT_SET_NO":999,"REV_AT_EPOCH":2999,"BSTAR":0.000386482,"MEAN_MOTION_DOT":0.00014623,"MEAN_MOTION_DDOT":0},{"OBJECT_NAME":"CZ-6A DEB","OBJECT_ID":"2024-140WS","EPOCH":"2026-03-09T22:52:03.972864","MEAN_MOTION":15.45783762,"ECCENTRICITY":0.00384783,"INCLINATION":89.2121,"RA_OF_ASC_NODE":294.2866,"ARG_OF_PERICENTER":90.9386,"MEAN_ANOMALY":269.6282,"EPHEMERIS_TYPE":0,"CLASSIFICATION_TYPE":"U","NORAD_CAT_ID":61377,"ELEMENT_SET_NO":999,"REV_AT_EPOCH":8253,"BSTAR":0.0057933589,"MEAN_MOTION_DOT":0.00298236,"MEAN_MOTION_DDOT":0}]
